ONEWEB-0363             
1 49289U 21090L   24172.73275891  .00000050  00000+0  90147-4 0  9991
2 49289  87.9213  58.9766 0001717  90.9837 269.1493 13.20770873134412
ONEWEB-0364             
1 49290U 21090M   24173.14943171  .00000093  00000+0  19606-3 0  9999
2 49290  87.9211  58.9189 0001925  83.9054 276.2299 13.20771807136429
ONEWEB-0366             
1 49292U 21090P   24172.81551357  .00000040  00000+0  73302-4 0  9991
2 49292  87.8967  74.2321 0002094  82.2694 277.8673 13.14505339132132
ONEWEB-0367             
1 49293U 21090Q   24173.18573156  .00000086  00000+0  17874-3 0  9995
2 49293  87.9212  58.8809 0002140  84.4784 275.6593 13.20772677135297
ONEWEB-0370             
1 49296U 21090T   24173.19519410  .00000080  00000+0  16429-3 0  9991
2 49296  87.9214  58.8835 0001666  70.4166 289.7147 13.20769722135335
